SL-8 R/B                
1 20775U 90078B   26062.99793982  .00020766  00000+0  61063-3 0  9996
2 20775  82.8989 256.4302 0363616  33.1204 329.2215 14.88836115808451
SL-8 R/B                
1 21088U 91006B   26063.77848735  .00000079  00000+0  63373-4 0  9992
2 21088  82.9464 173.6966 0023339  51.5962 112.6575 13.77493594763397
OKEAN-3                 
1 21397U 91039A   26063.75827475  .00004484  00000+0  31555-3 0  9997
2 21397  82.5197 341.6199 0014249 356.3997   3.7125 15.04762040864297
COSMOS 2151             
1 21422U 91042A   26063.81393923  .00002853  00000+0  22646-3 0  9992
2 21422  82.4928  88.3807 0014089  78.2400 282.0403 15.00082844862460
SL-14 R/B               
1 21423U 91042B   26063.49071818  .00000710  00000+0  86799-4 0  9993
2 21423  82.4912 225.0577 0015620 257.1611 102.7858 14.81823576852309
ERS-1                   
1 21574U 91050A   26063.76204215  .00000439  00000+0  15496-3 0  9991
2 21574  98.7886  81.8728 0031356 215.2662 144.6451 14.39444964815022
ARIANE 40 R/B           
1 21610U 91050F   26063.13125813  .00000424  00000+0  13953-3 0  9999
2 21610  98.2024 115.5761 0004362  93.2924 266.8765 14.42889010818191
INTERCOSMOS 25          
1 21819U 91086A   26063.12651537  .00001733  00000+0  33299-3 0  9994
2 21819  82.6063 313.3703 1487059 128.9167 245.4246 12.11982538496013
SL-8 R/B                
1 21876U 92008B   26063.83973026  .00000005  00000+0 -10538-4 0  9994
2 21876  82.9227 271.3870 0035309 146.5403 224.8947 13.75969772708756
SL-8 R/B                
1 21938U 92020B   26063.38363259  .00000105  00000+0  92841-4 0  9995
2 21938  82.9341 157.7001 0027874 314.2233 113.7047 13.75548821700407
USA 81                  
1 21949U 92023A   26063.27975751  .00000261  00000+0  89261-4 0  9999
2 21949  85.0095 134.5619 0002602  81.8580 278.2908 14.32366052 94015
COSMOS 2219             
1 22219U 92076A   26063.35712106  .00000306  00000+0  18506-3 0  9993
2 22219  71.0621  29.2143 0019292 214.1799 145.8083 14.14089889717626
SL-16 R/B               
1 22220U 92076B   26063.47284111  .00000019  00000+0  33151-4 0  9993
2 22220  71.0000 199.3614 0010578 106.0891 318.3363 14.16860223721096
COSMOS 2221             
1 22236U 92080A   26063.55461339  .00002384  00000+0  20906-3 0  9993
2 22236  82.5016 284.0007 0013562 205.0772 154.9793 14.96178240780027
SL-16 R/B               
1 22285U 92093B   26063.79259058 -.00000157  00000+0 -55928-4 0  9991
2 22285  71.0239  14.5451 0006331 298.8752  61.1735 14.15449374712462
COSMOS 2228             
1 22286U 92094A   26063.77487662  .00003551  00000+0  30439-3 0  9993
2 22286  82.5147 242.0172 0017103 322.2492  37.7529 14.97161563775323
SL-16 R/B               
1 22566U 93016B   26063.69118111  .00000303  00000+0  17996-3 0  9995
2 22566  71.0060 225.6794 0011441 321.1369  38.8930 14.15306002701469
